satname,norad_id,inclination_deg,eccentricity,mean_motion_rev_per_day,perigee_km,apogee_km,l1,l2
STARLINK-1309,45414,53.0611,0.0006195,15.65581559,367.3852805423039,375.748163453859,1 45414U 20019BG  26130.42104852  .00029975  00000+0  29685-3 0  9992,2 45414  53.0611 182.6728 0006195 323.5899  36.4694 15.65581559339670
STARLINK-1316,45415,53.1558,0.0005747,15.36157409,453.5563988280974,461.4132625602979,1 45415U 20019BH  26130.60770119  .00032323  00000+0  91089-3 0  9996,2 45415  53.1558 200.4359 0005747 342.7870  17.2937 15.36157409339493
STARLINK-1286,45417,53.046,0.0003207,15.56011565,397.04023151217007,401.3872242690386,1 45417U 20019BK  26130.56346169  .00029053  00000+0  41540-3 0  9990,2 45417  53.0460 192.2816 0003207 326.8691  33.2118 15.56011565339847
STARLINK-1308,45419,53.0473,0.0007446,15.62084699,376.60283248977066,386.669486679024,1 45419U 20019BM  26130.52144322  .00078584  00000+0  87733-3 0  9992,2 45419  53.0473 212.5650 0007446 310.7996  49.2371 15.62084699339308
STARLINK-1329,45531,53.0429,0.0005113,15.69750583,356.1656095520775,363.0556302681989,1 45531U 20025A   26130.32470406  .00038763  00000+0  32257-3 0  9993,2 45531  53.0429 138.7705 0005113  42.8029 317.3385 15.69750583335100
STARLINK-1338,45532,53.0438,0.0004566,15.65123832,369.80012831779277,375.9651594565903,1 45532U 20025B   26130.32389703  .00029649  00000+0  29920-3 0  9999,2 45532  53.0438 144.3822 0004566  21.6396 338.4810 15.65123832335022
STARLINK-1350,45535,53.0711,0.0001162,15.37610835,452.38277402734457,453.9703713016306,1 45535U 20025E   26130.24355270  .00008338  00000+0  23275-3 0  9994,2 45535  53.0711 103.7167 0001162  63.8905 296.2218 15.37610835335625
STARLINK-1362,45538,53.1566,0.0002727,15.3459397,460.26144128340184,463.9921211496776,1 45538U 20025H   26130.75672141 -.00123022  00000+0 -36662-2 0  9995,2 45538  53.1566 171.8483 0002727  51.9626 308.1622 15.34593970334695
STARLINK-1368,45540,53.1586,0.0004067,15.34949009,458.29044986370627,463.8534624286367,1 45540U 20025K   26130.37988685  .00027881  00000+0  81876-3 0  9991,2 45540  53.1586 173.9850 0004067  26.4194 333.7015 15.34949009334628
STARLINK-1371,45542,53.045,0.0006884,15.5749106,390.2585052767181,399.58365163914004,1 45542U 20025M   26130.49089472  .00062017  00000+0  82789-3 0  9996,2 45542  53.0450 151.8277 0006884  19.1736 340.9533 15.57491060334930
STARLINK-1372,45543,53.1566,0.0003875,15.35491082,456.81266530173434,462.111804708863,1 45543U 20025N   26130.54340794  .00026642  00000+0  76963-3 0  9991,2 45543  53.1566 172.8239 0003875  20.3461 339.7696 15.35491082333752
STARLINK-1373,45544,53.0451,0.0004108,15.66866919,365.10359784384036,370.6461211876185,1 45544U 20025P   26130.75734045  .00031673  00000+0  29773-3 0  9998,2 45544  53.0451 147.8567 0004108 357.1617   2.9374 15.66866919335017
STARLINK-1327,45555,53.0407,0.0005213,15.6462419,370.799744111996,377.8398555715112,1 45555U 20025AA  26130.69313993  .00035057  00000+0  35952-3 0  9994,2 45555  53.0407 124.8553 0005213   0.7470 359.3551 15.64624190335327
STARLINK-1356,45564,53.0462,0.0004212,15.54133783,401.8148656777066,407.5287037979697,1 45564U 20025AK  26130.19459867  .00036379  00000+0  55470-3 0  9995,2 45564  53.0462 138.8881 0004212   4.9954 355.1097 15.54133783335082
STARLINK-1357,45565,53.0453,0.0007879,15.6636655,363.99512456340653,374.6277538138793,1 45565U 20025AL  26130.27318881  .00036518  00000+0  34885-3 0  9997,2 45565  53.0453  97.2064 0007879  36.0255 324.1290 15.66366550335686
STARLINK-1361,45567,53.0449,0.0002381,15.57824622,392.3417758546693,395.5666456892395,1 45567U 20025AN  26130.79713580  .00059857  00000+0  79024-3 0  9996,2 45567  53.0449 134.5910 0002381   6.2448 353.8592 15.57824622335205
STARLINK-1363,45568,53.0315,0.0002028,15.99341697,274.8945676254252,277.5935845898948,1 45568U 20025AP  26130.83335647  .00226237  32316-4  45331-3 0  9998,2 45568  53.0315  82.8867 0002028 123.7087 326.4029 15.99341697  5696
STARLINK-1366,45569,53.0331,0.0001626,15.94715182,288.02402501142024,290.1922131241399,1 45569U 20025AQ  26130.83335647  .00231652  31935-4  59902-3 0  9991,2 45569  53.0331  84.6699 0001626  75.8724 163.8465 15.94715182  5692
STARLINK-1376,45570,53.1569,0.0005439,15.35834468,454.72460193649204,462.1614336798648,1 45570U 20025AR  26130.33140076  .00042567  00000+0  12070-2 0  9991,2 45570  53.1569 150.2891 0005439  15.5096 344.6073 15.35834468334953
STARLINK-1320,45572,53.0455,0.0003382,15.79829557,328.6541343129293,333.19214259057844,1 45572U 20025AT  26130.77389374  .00081858  00000+0  43443-3 0  9992,2 45572  53.0455  36.8805 0003382 196.2855 163.8057 15.79829557336582
STARLINK-1321,45573,53.0429,0.0005581,15.59161131,386.3063006897446,393.86098857328125,1 45573U 20025AU  26130.69705513  .00072563  00000+0  90777-3 0  9996,2 45573  53.0429 119.1913 0005581  32.0330 328.1020 15.59161131335105
STARLINK-1331,45578,53.0477,0.0007174,15.58606891,386.83139478922385,396.54473979577506,1 45578U 20025AZ  26130.84409345  .00063003  00000+0  80631-3 0  9999,2 45578  53.0477 125.3114 0007174  13.1417 346.9781 15.58606891335345
STARLINK-1333,45580,53.1572,0.0003415,15.32782681,465.1766894092025,469.8522693696259,1 45580U 20025BB  26130.32338084  .00025592  00000+0  80589-3 0  9999,2 45580  53.1572 151.2294 0003415  42.6242 317.5024 15.32782681334942
STARLINK-1335,45581,53.1548,0.000444,15.34351907,459.8087899371194,465.88358300670734,1 45581U 20025BC  26130.31670537  .00029083  00000+0  86970-3 0  9990,2 45581  53.1548 148.3041 0004440  32.9120 327.2158 15.34351907334973
STARLINK-1337,45582,53.0464,0.0007581,15.70679624,351.847613097405,362.0593572910575,1 45582U 20025BD  26130.84819681  .00047060  00000+0  37512-3 0  9997,2 45582  53.0464 117.0298 0007581  22.5015 337.6333 15.70679624335446
STARLINK-1347,45586,53.0385,0.0005145,15.6565974,367.8694161634594,374.81463007825005,1 45586U 20025BH  26130.86997882  .00036242  00000+0  35648-3 0  9991,2 45586  53.0385  86.3288 0005145  53.5925 306.5563 15.65659740335875
STARLINK-1364,45589,53.0443,0.0005273,15.60066404,383.89758739072477,391.0325913541765,1 45589U 20025BL  26130.83670522  .00039250  00000+0  47929-3 0  9997,2 45589  53.0443 122.7079 0005273 356.6289   3.4686 15.60066404335365
STARLINK-1365,45590,53.0466,0.0005472,15.54814157,398.9824357191901,406.40337596814425,1 45590U 20025BM  26130.36725529  .00041426  00000+0  61468-3 0  9997,2 45590  53.0466 157.4949 0005472 351.6121   8.4796 15.54814157334853
STARLINK-1443,45660,53.1334,0.0004473,15.30333636,471.7507595329598,477.88141136320246,1 45660U 20035D   26130.40079307  .00019246  00000+0  65743-3 0  9992,2 45660  53.1334 139.1255 0004473  13.9819 346.1305 15.30333636328195
STARLINK-1446,45663,53.023,0.000467,15.46042367,425.1383899454131,431.49561798511695,1 45663U 20035G   26130.80913086  .00026242  00000+0  53531-3 0  9996,2 45663  53.0230  63.6531 0004670  90.8548 269.2992 15.46042367329274
STARLINK-1448,45665,53.0439,0.0007402,15.65048656,368.10156434980945,378.0960938712251,1 45665U 20035J   26130.83310560  .00035046  00000+0  35320-3 0  9997,2 45665  53.0439 110.4547 0007402  14.8093 345.3137 15.65048656328614
STARLINK-1451,45668,53.0502,0.0002375,15.12987202,525.456023143287,528.7360088258793,1 45668U 20035M   26130.43391118  .00010342  00000+0  59522-3 0  9996,2 45668  53.0502 146.6191 0002375  34.0903 326.0241 15.12987202328086
STARLINK-1452,45669,53.027,9.65e-05,15.54278881,403.595143409244,404.90414403148225,1 45669U 20035N   26130.85133464  .00075781  00000+0  11363-2 0  9999,2 45669  53.0270  83.4571 0000965  63.6608 296.4501 15.54278881329006
STARLINK-1453,45670,53.0407,0.0003371,15.65409372,369.7861761416452,374.3371600836872,1 45670U 20035P   26130.80800918  .00040239  00000+0  39910-3 0  9990,2 45670  53.0407  70.9605 0003371  95.5159 264.6240 15.65409372329064
STARLINK-1454,45671,53.0442,0.0004156,15.6292975,376.39099049727247,382.0076884626478,1 45671U 20035Q   26130.36330976  .00089374  00000+0  96427-3 0  9993,2 45671  53.0442 113.6774 0004156   1.6595 358.4431 15.62929750328528
STARLINK-1456,45673,53.0428,0.0007408,15.61012589,379.7209665900973,389.7408316694473,1 45673U 20035S   26130.23871935  .00079485  00000+0  92472-3 0  9994,2 45673  53.0428 108.5489 0007408  46.2096 313.9528 15.61012589328608
STARLINK-1457,45674,53.0347,0.0001937,16.09613721,246.619704294636,249.18663225582623,1 45674U 20035T   26130.87677501  .00541720  16100-3  57655-3 0  9990,2 45674  53.0347  65.4748 0001937 195.6592 164.4381 16.09613721329222
STARLINK-1458,45675,53.0477,0.0006375,15.52330173,405.59721869921486,414.25199724938193,1 45675U 20035U   26130.67565235  .00059813  00000+0  96523-3 0  9991,2 45675  53.0477 119.1547 0006375   6.3776 353.7313 15.52330173328450
STARLINK-1460,45676,53.1574,0.0004148,15.32676096,464.99214028785445,470.67155604429354,1 45676U 20035V   26130.75231512  .00024419  00000+0  77210-3 0  9995,2 45676  53.1574 136.3843 0004148  48.7284 311.4075 15.32676096328226
STARLINK-1392,45677,53.1531,0.0003363,15.35766471,456.34560243735814,460.94402188421736,1 45677U 20035W   26130.24282236  .00038496  00000+0  10959-2 0  9995,2 45677  53.1531 138.0537 0003363  52.3318 307.7990 15.35766471328196
STARLINK-1394,45679,53.0416,0.0008301,15.60958795,379.272287941114,390.5002591798784,1 45679U 20035Y   26130.62086709  .00080181  00000+0  93432-3 0  9992,2 45679  53.0416  96.9133 0008301  54.3456 305.8328 15.60958795328795
STARLINK-1402,45685,53.0408,0.000788,15.54364313,398.6567979209758,409.345447602449,1 45685U 20035AE  26130.17893014  .00061946  00000+0  92783-3 0  9990,2 45685  53.0408  88.4258 0007880  67.6076 292.5768 15.54364313328883
STARLINK-1404,45686,53.1573,0.0005347,15.41525092,437.96105943943166,445.25409428993134,1 45686U 20035AF  26130.67108914  .00050465  00000+0  11859-2 0  9992,2 45686  53.1573 118.8738 0005347  60.2428 299.9109 15.41525092328503
